start=new Date('2021-12-20T00:00:00.000Z').valueOf();
sats=[{"REV_AT_EPOCH":"276","EPHEMERIS_TYPE":"0","RCS_SIZE":"LARGE","TIME_SYSTEM":"UTC","OBJECT_ID":"2021-115AQ","ECCENTRICITY":"0.00014270","ARG_OF_PERICENTER":"50.4769","SEMIMAJOR_AXIS":"6822.828","PERIAPSIS":"443.719","CLASSIFICATION_TYPE":"U","MEAN_MOTION_DDOT":"0.0000000000000","EPOCH":"2021-12-19T21:19:21.373248","MEAN_ANOMALY":"309.6363","INCLINATION":"53.2140","LAUNCH_DATE":"2021-12-02","MEAN_ELEMENT_THEORY":"SGP4","REF_FRAME":"TEME","NORAD_CAT_ID":"49762","OBJECT_TYPE":"PAYLOAD","APOAPSIS":"445.667","MEAN_MOTION":"15.40480222","ELEMENT_SET_NO":"999","RA_OF_ASC_NODE":"237.4823","FILE":"3244825","OBJECT_NAME":"STARLINK-3195","PERIOD":"93.477","GP_ID":"192043046","CENTER_NAME":"EARTH","MEAN_MOTION_DOT":"0.00015186","DECAY_DATE":null,"TLE_LINE1":"1 49762U 21115AQ  21353.88844182  .00015186  00000-0  37810-3 0  9998","TLE_LINE2":"2 49762  53.2140 237.4823 0001427  50.4769 309.6363 15.40480222  2762","BSTAR":"0.00037810000000","COUNTRY_CODE":"US","SITE":"AFETR"},{"REF_FRAME":"TEME","NORAD_CAT_ID":"49763","OBJECT_TYPE":"PAYLOAD","APOAPSIS":"445.911","MEAN_ANOMALY":"302.1754","MEAN_ELEMENT_THEORY":"SGP4","LAUNCH_DATE":"2021-12-02","INCLINATION":"53.2150","PERIAPSIS":"443.510","CLASSIFICATION_TYPE":"U","SEMIMAJOR_AXIS":"6822.845","EPOCH":"2021-12-19T21:18:32.414688","MEAN_MOTION_DDOT":"0.0000000000000","EPHEMERIS_TYPE":"0","REV_AT_EPOCH":"276","TIME_SYSTEM":"UTC","ECCENTRICITY":"0.00017600","OBJECT_ID":"2021-115AR","ARG_OF_PERICENTER":"57.9422","RCS_SIZE":"LARGE","COUNTRY_CODE":"US","BSTAR":"0.00018310000000","SITE":"AFETR","TLE_LINE1":"1 49763U 21115AR  21353.88787517  .00007136  00000-0  18310-3 0  9997","TLE_LINE2":"2 49763  53.2150 237.4804 0001760  57.9422 302.1754 15.40474322  2767","GP_ID":"192042034","CENTER_NAME":"EARTH","OBJECT_NAME":"STARLINK-3198","PERIOD":"93.478","MEAN_MOTION_DOT":"0.00007136","DECAY_DATE":null,"ELEMENT_SET_NO":"999","MEAN_MOTION":"15.40474322","RA_OF_ASC_NODE":"237.4804","FILE":"3244825"},{"TLE_LINE2":"2 49764  53.2155 237.4832 0001527  47.4468 312.6666 15.40463596  3882","TLE_LINE1":"1 49764U 21115AS  21353.88881484  .00002357  00000-0  67100-4 0  9998","SITE":"AFETR","BSTAR":"0.00006710000000","COUNTRY_CODE":"US","RA_OF_ASC_NODE":"237.4832","FILE":"3244825","ELEMENT_SET_NO":"999","MEAN_MOTION":"15.40463596","MEAN_MOTION_DOT":"0.00002357","DECAY_DATE":null,"CENTER_NAME":"EARTH","GP_ID":"192042236","OBJECT_NAME":"STARLINK-3206","PERIOD":"93.478","LAUNCH_DATE":"2021-12-02","MEAN_ELEMENT_THEORY":"SGP4","INCLINATION":"53.2155","MEAN_ANOMALY":"312.6666","OBJECT_TYPE":"PAYLOAD","APOAPSIS":"445.784","REF_FRAME":"TEME","NORAD_CAT_ID":"49764","OBJECT_ID":"2021-115AS","ECCENTRICITY":"0.00015270","TIME_SYSTEM":"UTC","ARG_OF_PERICENTER":"47.4468","RCS_SIZE":"MEDIUM","EPHEMERIS_TYPE":"0","REV_AT_EPOCH":"388","EPOCH":"2021-12-19T21:19:53.602176","MEAN_MOTION_DDOT":"0.0000000000000","PERIAPSIS":"443.700","CLASSIFICATION_TYPE":"U","SEMIMAJOR_AXIS":"6822.877"},{"COUNTRY_CODE":"US","BSTAR":"0.00040666000000","SITE":"AFETR","TLE_LINE1":"1 49765U 21115AT  21353.88825461  .00016367  00000-0  40666-3 0  9995","TLE_LINE2":"2 49765  53.2142 237.4802 0001404  49.3588 310.7540 15.40482242  2769","CENTER_NAME":"EARTH","GP_ID":"192042844","PERIOD":"93.477","OBJECT_NAME":"STARLINK-3227","MEAN_MOTION_DOT":"0.00016367","DECAY_DATE":null,"ELEMENT_SET_NO":"999","MEAN_MOTION":"15.40482242","FILE":"3244825","RA_OF_ASC_NODE":"237.4802","NORAD_CAT_ID":"49765","REF_FRAME":"TEME","APOAPSIS":"445.645","OBJECT_TYPE":"PAYLOAD","MEAN_ANOMALY":"310.7540","LAUNCH_DATE":"2021-12-02","MEAN_ELEMENT_THEORY":"SGP4","INCLINATION":"53.2142","PERIAPSIS":"443.729","CLASSIFICATION_TYPE":"U","SEMIMAJOR_AXIS":"6822.822","EPOCH":"2021-12-19T21:19:05.198304","MEAN_MOTION_DDOT":"0.0000000000000","EPHEMERIS_TYPE":"0","REV_AT_EPOCH":"276","ECCENTRICITY":"0.00014040","TIME_SYSTEM":"UTC","OBJECT_ID":"2021-115AT","ARG_OF_PERICENTER":"49.3588","RCS_SIZE":"LARGE"},{"CENTER_NAME":"EARTH","GP_ID":"192018875","PERIOD":"93.478","OBJECT_NAME":"STARLINK-3190","DECAY_DATE":null,"MEAN_MOTION_DOT":"-0.00029190","ELEMENT_SET_NO":"999","MEAN_MOTION":"15.40476631","FILE":"3244804","RA_OF_ASC_NODE":"237.3558","BSTAR":"-0.00070233000000","COUNTRY_CODE":"US","SITE":"AFETR","TLE_LINE1":"1 49766U 21115AU  21353.91667824 -.00029190  00000-0 -70233-3 0  9990","TLE_LINE2":"2 49766  53.2137 237.3558 0001674  49.6299 104.0207 15.40476631  3874","PERIAPSIS":"443.561","CLASSIFICATION_TYPE":"U","SEMIMAJOR_AXIS":"6822.839","EPOCH":"2021-12-19T22:00:00.999936","MEAN_MOTION_DDOT":"0.0000000000000","EPHEMERIS_TYPE":"0","REV_AT_EPOCH":"387","TIME_SYSTEM":"UTC","ECCENTRICITY":"0.00016740","OBJECT_ID":"2021-115AU","ARG_OF_PERICENTER":"49.6299","RCS_SIZE":"LARGE","NORAD_CAT_ID":"49766","REF_FRAME":"TEME","APOAPSIS":"445.846","OBJECT_TYPE":"PAYLOAD","MEAN_ANOMALY":"104.0207","LAUNCH_DATE":"2021-12-02","MEAN_ELEMENT_THEORY":"SGP4","INCLINATION":"53.2137"},{"TLE_LINE2":"2 49767  53.2143 237.4827 0001526  55.4700 304.6450 15.40474601  2760","TLE_LINE1":"1 49767U 21115AV  21353.88863573  .00007050  00000-0  18101-3 0  9991","SITE":"AFETR","BSTAR":"0.00018101000000","COUNTRY_CODE":"US","FILE":"3244825","RA_OF_ASC_NODE":"237.4827","MEAN_MOTION":"15.40474601","ELEMENT_SET_NO":"999","MEAN_MOTION_DOT":"0.00007050","DECAY_DATE":null,"PERIOD":"93.478","OBJECT_NAME":"STARLINK-3192","GP_ID":"192042439","CENTER_NAME":"EARTH","LAUNCH_DATE":"2021-12-02","INCLINATION":"53.2143","MEAN_ELEMENT_THEORY":"SGP4","MEAN_ANOMALY":"304.6450","APOAPSIS":"445.751","OBJECT_TYPE":"PAYLOAD","NORAD_CAT_ID":"49767","REF_FRAME":"TEME","RCS_SIZE":"LARGE","ARG_OF_PERICENTER":"55.4700","ECCENTRICITY":"0.00015260","OBJECT_ID":"2021-115AV","TIME_SYSTEM":"UTC","REV_AT_EPOCH":"276","EPHEMERIS_TYPE":"0","MEAN_MOTION_DDOT":"0.0000000000000","EPOCH":"2021-12-19T21:19:38.127072","SEMIMAJOR_AXIS":"6822.845","CLASSIFICATION_TYPE":"U","PERIAPSIS":"443.668"},{"SITE":"AFETR","COUNTRY_CODE":"US","BSTAR":"0.00028096000000","TLE_LINE2":"2 49768  53.2135 237.4847 0001642  45.4303 314.6837 15.40467540  2765","TLE_LINE1":"1 49768U 21115AW  21353.88938749  .00011170  00000-0  28096-3 0  9992","MEAN_MOTION_DOT":"0.00011170","DECAY_DATE":null,"PERIOD":"93.478","OBJECT_NAME":"STARLINK-3196","GP_ID":"192042642","CENTER_NAME":"EARTH","FILE":"3244825","RA_OF_ASC_NODE":"237.4847","MEAN_MOTION":"15.40467540","ELEMENT_SET_NO":"999","APOAPSIS":"445.851","OBJECT_TYPE":"PAYLOAD","NORAD_CAT_ID":"49768","REF_FRAME":"TEME","INCLINATION":"53.2135","LAUNCH_DATE":"2021-12-02","MEAN_ELEMENT_THEORY":"SGP4","MEAN_ANOMALY":"314.6837","MEAN_MOTION_DDOT":"0.0000000000000","EPOCH":"2021-12-19T21:20:43.079136","SEMIMAJOR_AXIS":"6822.865","PERIAPSIS":"443.610","CLASSIFICATION_TYPE":"U","RCS_SIZE":"LARGE","OBJECT_ID":"2021-115AW","TIME_SYSTEM":"UTC","ECCENTRICITY":"0.00016420","ARG_OF_PERICENTER":"45.4303","REV_AT_EPOCH":"276","EPHEMERIS_TYPE":"0"},{"TLE_LINE1":"1 49769U 21115AX  21353.88920139  .00023502  00000-0  57906-3 0  9991","TLE_LINE2":"2 49769  53.2141 237.4870 0001720  42.3025 317.8113 15.40486365  2761","BSTAR":"0.00057906000000","COUNTRY_CODE":"US","SITE":"AFETR","ELEMENT_SET_NO":"999","MEAN_MOTION":"15.40486365","FILE":"3244825","RA_OF_ASC_NODE":"237.4870","CENTER_NAME":"EARTH","GP_ID":"192043249","PERIOD":"93.477","OBJECT_NAME":"STARLINK-3208","DECAY_DATE":null,"MEAN_MOTION_DOT":"0.00023502","MEAN_ANOMALY":"317.8113","INCLINATION":"53.2141","LAUNCH_DATE":"2021-12-02","MEAN_ELEMENT_THEORY":"SGP4","NORAD_CAT_ID":"49769","REF_FRAME":"TEME","APOAPSIS":"445.848","OBJECT_TYPE":"PAYLOAD","EPHEMERIS_TYPE":"0","REV_AT_EPOCH":"276","ECCENTRICITY":"0.00017200","TIME_SYSTEM":"UTC","ARG_OF_PERICENTER":"42.3025","OBJECT_ID":"2021-115AX","RCS_SIZE":"LARGE","PERIAPSIS":"443.501","CLASSIFICATION_TYPE":"U","SEMIMAJOR_AXIS":"6822.810","EPOCH":"2021-12-19T21:20:27.000096","MEAN_MOTION_DDOT":"0.0000000000000"},{"FILE":"3244825","RA_OF_ASC_NODE":"237.4878","ELEMENT_SET_NO":"999","MEAN_MOTION":"15.40481319","MEAN_MOTION_DOT":"0.00017130","DECAY_DATE":null,"CENTER_NAME":"EARTH","GP_ID":"192043047","PERIOD":"93.477","OBJECT_NAME":"STARLINK-3191","TLE_LINE2":"2 49770  53.2134 237.4878 0001850  33.7530 326.3593 15.40481319  3887","TLE_LINE1":"1 49770U 21115AY  21353.88957709  .00017130  00000-0  42512-3 0  9993","SITE":"AFETR","BSTAR":"0.00042512000000","COUNTRY_CODE":"US","OBJECT_ID":"2021-115AY","ECCENTRICITY":"0.00018500","ARG_OF_PERICENTER":"33.7530","TIME_SYSTEM":"UTC","RCS_SIZE":"LARGE","EPHEMERIS_TYPE":"0","REV_AT_EPOCH":"388","EPOCH":"2021-12-19T21:20:59.460576","MEAN_MOTION_DDOT":"0.0000000000000","PERIAPSIS":"443.428","CLASSIFICATION_TYPE":"U","SEMIMAJOR_AXIS":"6822.825","LAUNCH_DATE":"2021-12-02","INCLINATION":"53.2134","MEAN_ELEMENT_THEORY":"SGP4","MEAN_ANOMALY":"326.3593","APOAPSIS":"445.952","OBJECT_TYPE":"PAYLOAD","NORAD_CAT_ID":"49770","REF_FRAME":"TEME"},{"MEAN_ANOMALY":"317.5465","LAUNCH_DATE":"2021-12-02","INCLINATION":"53.2142","MEAN_ELEMENT_THEORY":"SGP4","REF_FRAME":"TEME","NORAD_CAT_ID":"49771","OBJECT_TYPE":"PAYLOAD","APOAPSIS":"445.870","REV_AT_EPOCH":"276","EPHEMERIS_TYPE":"0","RCS_SIZE":"LARGE","OBJECT_ID":"2021-115AZ","ECCENTRICITY":"0.00016730","ARG_OF_PERICENTER":"42.5670","TIME_SYSTEM":"UTC","SEMIMAJOR_AXIS":"6822.863","PERIAPSIS":"443.587","CLASSIFICATION_TYPE":"U","MEAN_MOTION_DDOT":"0.0000000000000","EPOCH":"2021-12-19T21:21:15.741792","TLE_LINE1":"1 49771U 21115AZ  21353.88976553  .00005082  00000-0  13327-3 0  9997","TLE_LINE2":"2 49771  53.2142 237.4916 0001673  42.5670 317.5465 15.40468296  2761","BSTAR":"0.00013327000000","COUNTRY_CODE":"US","SITE":"AFETR","MEAN_MOTION":"15.40468296","ELEMENT_SET_NO":"999","RA_OF_ASC_NODE":"237.4916","FILE":"3244825","OBJECT_NAME":"STARLINK-3201","PERIOD":"93.478","GP_ID":"192042035","CENTER_NAME":"EARTH","DECAY_DATE":null,"MEAN_MOTION_DOT":"0.00005082"}];
